{"type": "FeatureCollection", "features": [ {"type": "Feature", "properties": {"norad_id": 33492, "name": "GOSAT (IBUKI)", "group": "resource", "lat": 13.749461826309918, "lon": 102.95802013014752, "alt_km": 669.9224709134742, "timestamp": "2025-12-22T11:33:20.086082+00:00", "meta": {"OBJECT_NAME": "GOSAT (IBUKI)", "OBJECT_ID": "2009-002A", "EPOCH": "2025-12-22T01:40:27.360768", "MEAN_MOTION": 14.67542541, "ECCENTRICITY": 9.87e-05, "INCLINATION": 98.0771, "RA_OF_ASC_NODE": 104.5434, "ARG_OF_PERICENTER": 101.6581, "MEAN_ANOMALY": 258.4735, "EPHEMERIS_TYPE": 0, "CLASSIFICATION_TYPE": "U", "NORAD_CAT_ID": 33492, "ELEMENT_SET_NO": 999, "REV_AT_EPOCH": 90548, "BSTAR": 0.00014648, "MEAN_MOTION_DOT": 7.83e-06, "MEAN_MOTION_DDOT": 0}, "tle": {"line1": "1 33492U 09002A   25356.06976112  .00000783  00000+0  14648-3 0  9998", "line2": "2 33492  98.0771 104.5434 0000987 101.6581 258.4735 14.67542541905481"}}, "geometry": {"type": "Point", "coordinates": [102.95802013014752, 13.749461826309918]}}, {"type": "Feature", "properties": {"norad_id": 35681, "name": "DEIMOS-1", "group": "resource", "lat": -8.79423785275761, "lon": 157.83291138728265, "alt_km": 648.8144900622319, "timestamp": "2025-12-22T11:33:20.086092+00:00", "meta": {"OBJECT_NAME": "DEIMOS-1", "OBJECT_ID": "2009-041A", "EPOCH": "2025-12-22T05:04:59.209824", "MEAN_MOTION": 14.74964719, "ECCENTRICITY": 0.000257, "INCLINATION": 97.7148, "RA_OF_ASC_NODE": 156.3742, "ARG_OF_PERICENTER": 64.7665, "MEAN_ANOMALY": 295.3811, "EPHEMERIS_TYPE": 0, "CLASSIFICATION_TYPE": "U", "NORAD_CAT_ID": 35681, "ELEMENT_SET_NO": 999, "REV_AT_EPOCH": 88079, "BSTAR": 6.6889e-05, "MEAN_MOTION_DOT": 4.02e-06, "MEAN_MOTION_DDOT": 0}, "tle": {"line1": "1 35681U 09041A   25356.21179641  .00000402  00000+0  66889-4 0  9995", "line2": "2 35681  97.7148 156.3742 0002570  64.7665 295.3811 14.74964719880790"}}, "geometry": {"type": "Point", "coordinates": [157.83291138728265, -8.79423785275761]}}, {"type": "Feature", "properties": {"norad_id": 35682, "name": "DUBAISAT-1", "group": "resource", "lat": -80.91497806642171, "lon": -171.67122855827213, "alt_km": 647.2268735780208, "timestamp": "2025-12-22T11:33:20.086103+00:00", "meta": {"OBJECT_NAME": "DUBAISAT-1", "OBJECT_ID": "2009-041B", "EPOCH": "2025-12-21T22:54:53.737632", "MEAN_MOTION": 14.74628327, "ECCENTRICITY": 0.0009222, "INCLINATION": 97.9798, "RA_OF_ASC_NODE": 126.4992, "ARG_OF_PERICENTER": 281.3915, "MEAN_ANOMALY": 78.6258, "EPHEMERIS_TYPE": 0, "CLASSIFICATION_TYPE": "U", "NORAD_CAT_ID": 35682, "ELEMENT_SET_NO": 999, "REV_AT_EPOCH": 87897, "BSTAR": 0.0001851, "MEAN_MOTION_DOT": 1.185e-05, "MEAN_MOTION_DDOT": 0}, "tle": {"line1": "1 35682U 09041B   25355.95478863  .00001185  00000+0  18510-3 0  9990", "line2": "2 35682  97.9798 126.4992 0009222 281.3915  78.6258 14.74628327878971"}}, "geometry": {"type": "Point", "coordinates": [-171.67122855827213, -80.91497806642171]}}, {"type": "Feature", "properties": {"norad_id": 35931, "name": "OCEANSAT-2", "group": "resource", "lat": -14.451299674937065, "lon": -1.7711616157472747, "alt_km": 890.0332928525731, "timestamp": "2025-12-22T11:33:20.086113+00:00", "meta": {"OBJECT_NAME": "OCEANSAT-2", "OBJECT_ID": "2009-051A", "EPOCH": "2025-12-22T04:45:43.794720", "MEAN_MOTION": 13.99622969, "ECCENTRICITY": 0.0015976, "INCLINATION": 98.2217, "RA_OF_ASC_NODE": 355.8392, "ARG_OF_PERICENTER": 20.2435, "MEAN_ANOMALY": 339.9361, "EPHEMERIS_TYPE": 0, "CLASSIFICATION_TYPE": "U", "NORAD_CAT_ID": 35931, "ELEMENT_SET_NO": 999, "REV_AT_EPOCH": 85457, "BSTAR": -3.413e-05, "MEAN_MOTION_DOT": -8.7e-07, "MEAN_MOTION_DDOT": 0}, "tle": {"line1": "1 35931U 09051A   25356.19842355 -.00000087  00000+0 -34130-4 0  9995", "line2": "2 35931  98.2217 355.8392 0015976  20.2435 339.9361 13.99622969854570"}}, "geometry": {"type": "Point", "coordinates": [-1.7711616157472747, -14.451299674937065]}}, {"type": "Feature", "properties": {"norad_id": 35946, "name": "WORLDVIEW-2 (WV-2)", "group": "resource", "lat": 1.395372585505492, "lon": 67.22404973388335, "alt_km": 766.3248405190216, "timestamp": "2025-12-22T11:33:20.086123+00:00", "meta": {"OBJECT_NAME": "WORLDVIEW-2 (WV-2)", "OBJECT_ID": "2009-055A", "EPOCH": "2025-12-22T03:11:51.808128", "MEAN_MOTION": 14.37727982, "ECCENTRICITY": 0.000485, "INCLINATION": 98.4776, "RA_OF_ASC_NODE": 67.0888, "ARG_OF_PERICENTER": 47.5584, "MEAN_ANOMALY": 312.6012, "EPHEMERIS_TYPE": 0, "CLASSIFICATION_TYPE": "U", "NORAD_CAT_ID": 35946, "ELEMENT_SET_NO": 999, "REV_AT_EPOCH": 85020, "BSTAR": 6.8825e-05, "MEAN_MOTION_DOT": 1.63e-06, "MEAN_MOTION_DDOT": 0}, "tle": {"line1": "1 35946U 09055A   25356.13323852  .00000163  00000+0  68825-4 0  9996", "line2": "2 35946  98.4776  67.0888 0004850  47.5584 312.6012 14.37727982850207"}}, "geometry": {"type": "Point", "coordinates": [67.22404973388335, 1.395372585505492]}}, {"type": "Feature", "properties": {"norad_id": 36036, "name": "SMOS", "group": "resource", "lat": 70.38256297840927, "lon": 25.99779398765829, "alt_km": 751.8092649376222, "timestamp": "2025-12-22T11:33:20.086134+00:00", "meta": {"OBJECT_NAME": "SMOS", "OBJECT_ID": "2009-059A", "EPOCH": "2025-12-22T02:43:02.760960", "MEAN_MOTION": 14.39749322, "ECCENTRICITY": 0.0001068, "INCLINATION": 98.4381, "RA_OF_ASC_NODE": 181.0229, "ARG_OF_PERICENTER": 83.0241, "MEAN_ANOMALY": 277.1069, "EPHEMERIS_TYPE": 0, "CLASSIFICATION_TYPE": "U", "NORAD_CAT_ID": 36036, "ELEMENT_SET_NO": 999, "REV_AT_EPOCH": 84797, "BSTAR": 0.00012861, "MEAN_MOTION_DOT": 3.59e-06, "MEAN_MOTION_DDOT": 0}, "tle": {"line1": "1 36036U 09059A   25356.11322640  .00000359  00000+0  12861-3 0  9998", "line2": "2 36036  98.4381 181.0229 0001068  83.0241 277.1069 14.39749322847970"}}, "geometry": {"type": "Point", "coordinates": [25.99779398765829, 70.38256297840927]}}, {"type": "Feature", "properties": {"norad_id": 36110, "name": "YAOGAN-7", "group": "resource", "lat": -2.818727339370183, "lon": 57.80517377946315, "alt_km": 632.9524813431044, "timestamp": "2025-12-22T11:33:20.086144+00:00", "meta": {"OBJECT_NAME": "YAOGAN-7", "OBJECT_ID": "2009-069A", "EPOCH": "2025-12-22T04:13:43.451904", "MEAN_MOTION": 14.77745547, "ECCENTRICITY": 0.0023389, "INCLINATION": 98.0296, "RA_OF_ASC_NODE": 237.8993, "ARG_OF_PERICENTER": 249.0784, "MEAN_ANOMALY": 110.7922, "EPHEMERIS_TYPE": 0, "CLASSIFICATION_TYPE": "U", "NORAD_CAT_ID": 36110, "ELEMENT_SET_NO": 999, "REV_AT_EPOCH": 86348, "BSTAR": 8.7982e-05, "MEAN_MOTION_DOT": 5.8e-06, "MEAN_MOTION_DDOT": 0}, "tle": {"line1": "1 36110U 09069A   25356.17619736  .00000580  00000+0  87982-4 0  9996", "line2": "2 36110  98.0296 237.8993 0023389 249.0784 110.7922 14.77745547863489"}}, "geometry": {"type": "Point", "coordinates": [57.80517377946315, -2.818727339370183]}}, {"type": "Feature", "properties": {"norad_id": 36605, "name": "TANDEM-X", "group": "resource", "lat": 76.23018070449385, "lon": -30.526681528875816, "alt_km": 499.95815932343794, "timestamp": "2025-12-22T11:33:20.086154+00:00", "meta": {"OBJECT_NAME": "TANDEM-X", "OBJECT_ID": "2010-030A", "EPOCH": "2025-12-21T11:29:57.943104", "MEAN_MOTION": 15.19156092, "ECCENTRICITY": 0.0001799, "INCLINATION": 97.4444, "RA_OF_ASC_NODE": 0.7318, "ARG_OF_PERICENTER": 77.8908, "MEAN_ANOMALY": 282.2528, "EPHEMERIS_TYPE": 0, "CLASSIFICATION_TYPE": "U", "NORAD_CAT_ID": 36605, "ELEMENT_SET_NO": 999, "REV_AT_EPOCH": 85966, "BSTAR": 3.7921e-05, "MEAN_MOTION_DOT": 7.29e-06, "MEAN_MOTION_DDOT": 0}, "tle": {"line1": "1 36605U 10030A   25355.47914286  .00000729  00000+0  37921-4 0  9998", "line2": "2 36605  97.4444   0.7318 0001799  77.8908 282.2528 15.19156092859660"}}, "geometry": {"type": "Point", "coordinates": [-30.526681528875816, 76.23018070449385]}}, {"type": "Feature", "properties": {"norad_id": 36795, "name": "CARTOSAT-2B", "group": "resource", "lat": 34.466559982585196, "lon": -129.41694259558295, "alt_km": 632.1938433318601, "timestamp": "2025-12-22T11:33:20.086164+00:00", "meta": {"OBJECT_NAME": "CARTOSAT-2B", "OBJECT_ID": "2010-035A", "EPOCH": "2025-12-22T04:24:24.676416", "MEAN_MOTION": 14.78738699, "ECCENTRICITY": 0.0012731, "INCLINATION": 97.7842, "RA_OF_ASC_NODE": 44.907, "ARG_OF_PERICENTER": 48.8772, "MEAN_ANOMALY": 311.3536, "EPHEMERIS_TYPE": 0, "CLASSIFICATION_TYPE": "U", "NORAD_CAT_ID": 36795, "ELEMENT_SET_NO": 999, "REV_AT_EPOCH": 83369, "BSTAR": 0.0001329, "MEAN_MOTION_DOT": 9.27e-06, "MEAN_MOTION_DDOT": 0}, "tle": {"line1": "1 36795U 10035A   25356.18361894  .00000927  00000+0  13290-3 0  9995", "line2": "2 36795  97.7842  44.9070 0012731  48.8772 311.3536 14.78738699833696"}}, "geometry": {"type": "Point", "coordinates": [-129.41694259558295, 34.466559982585196]}}, {"type": "Feature", "properties": {"norad_id": 36834, "name": "YAOGAN-10", "group": "resource", "lat": 69.99675040684428, "lon": -6.232783133265161, "alt_km": 607.010446515168, "timestamp": "2025-12-22T11:33:20.086175+00:00", "meta": {"OBJECT_NAME": "YAOGAN-10", "OBJECT_ID": "2010-038A", "EPOCH": "2025-12-22T05:20:26.935872", "MEAN_MOTION": 14.84637833, "ECCENTRICITY": 0.0001338, "INCLINATION": 97.9129, "RA_OF_ASC_NODE": 15.9719, "ARG_OF_PERICENTER": 77.9439, "MEAN_ANOMALY": 50.5083, "EPHEMERIS_TYPE": 0, "CLASSIFICATION_TYPE": "U", "NORAD_CAT_ID": 36834, "ELEMENT_SET_NO": 999, "REV_AT_EPOCH": 83094, "BSTAR": 0.00012533, "MEAN_MOTION_DOT": 1.006e-05, "MEAN_MOTION_DDOT": 0}, "tle": {"line1": "1 36834U 10038A   25356.22253398  .00001006  00000+0  12533-3 0  9994", "line2": "2 36834  97.9129  15.9719 0001338  77.9439  50.5083 14.84637833830941"}}, "geometry": {"type": "Point", "coordinates": [-6.232783133265161, 69.99675040684428]}}]}